#aV2013  3 13  0  0  0.00000000     288 DD+AD WGS84 FIT  NGA
## 1731 259200.00000000   300.00000000 56364 0.0000000000000
+   31     1  2  3  4  5  6  7  8  9 10 11 12 13 14 15 16 17
+         18 19 20 21 22 23 24 25 26 28 29 30 31 32  0  0  0
+          0  0  0  0  0  0  0  0  0  0  0  0  0  0  0  0  0
+          0  0  0  0  0  0  0  0  0  0  0  0  0  0  0  0  0
+          0  0  0  0  0  0  0  0  0  0  0  0  0  0  0  0  0
++         2  2  2  2  2  2  2  2  2  2  2  2  2  2  2  2  2
++         2  2  2  2  2  2  2  2  2  2  2  2  2  2  2  0  0
++         0  0  0  0  0  0  0  0  0  0  0  0  0  0  0  0  0
++         0  0  0  0  0  0  0  0  0  0  0  0  0  0  0  0  0
++         0  0  0  0  0  0  0  0  0  0  0  0  0  0  0  0  0
%c cc cc ccc ccc cccc cccc cccc cccc ccccc ccccc ccccc ccccc
%c cc cc ccc ccc cccc cccc cccc cccc ccccc ccccc ccccc ccccc
%f  0.0000000  0.000000000  0.00000000000  0.000000000000000
%f  0.0000000  0.000000000  0.00000000000  0.000000000000000
%i    0    0    0    0      0      0      0      0         0
%i    0    0    0    0      0      0      0      0         0
/*      NGA, ST. LOUIS,MO.                                  
/*   EPHEMERIS COMPUTED FROM  1 DAYS OF DATA
/*   EPOCHA SMOOTHER  
/* CCCCCCCCCCCCCCCCCCCCCCCCCCCCCCCCCCCCCCCCCCCCCCCCCCCCCCCCC
*  2013  3 13  6  5  0.00000000                                                 
P  1  14276.968240  -5999.533126  21552.806017      7.049319                    
V  1   4900.995320  26981.363626   4333.074960      0.030226                    
P  2 -13688.924783 -18256.912433 -13817.726002    422.091193                    
V  2   -911.603112 -17852.111265  23645.775270      0.015308                    
P  3  24441.761649   9509.068781  -5409.386218    179.920311                    
V  3  -6792.080555   1884.137843 -29993.166471      0.050561                    
P  4  -6972.319342 -25249.321989  -3620.807392    159.799517                    
V  4   2929.093783  -4870.875514  30977.614231      0.109091                    
P  5 -16784.601222  -4792.989698 -20086.112494   -387.598345                    
V  5  18902.593064 -17062.246774 -11603.151031     -0.015670                    
P  6  21054.183006  13536.347576  -9300.610591    316.899183                    
V  6 -12189.079893   -719.594424 -28001.237479     -0.151266                    
P  7   7214.871298 -20552.425654 -14953.522674    190.584114                    
V  7   4667.280346  18666.212271 -23617.535393      0.043070                    
P  8   1939.479448 -25620.763133  -5230.027381      5.077474                    
V  8   2443.304624   6738.458508 -32044.439710      0.001312                    
P  9 -12817.409318 -17651.673035  14549.968701    226.588964                    
V  9  -1544.620683 -19447.717201 -24116.277031      0.024865                    
P 10  -1359.886400 -17506.894350 -20099.929594    -73.043913                    
V 10  20500.837052 -14493.449333  11814.772935     -0.014016                    
P 11  17864.392486    923.137807  19266.724403   -361.948542                    
V 11   9857.963197  23736.944341  -9774.217999     -0.036522                    
P 12 -22749.422348   9783.006683   9284.542666    122.576108                    
V 12   8108.037790  -8903.639112  29373.195769      0.020581                    
P 13  14947.700027  -7987.712639 -20625.517088    138.043995                    
V 13  22807.627093  12022.191353  11844.330529     -0.029279                    
P 14   5423.090880  17203.733052  19737.579119    220.916889                    
V 14 -22728.285313  -9351.322519  14399.924234      0.001233                    
P 15 -25424.185362  -2936.202765   7554.769150   -111.346184                    
V 15  -8085.607443  -5969.256019 -29168.419383     -0.013543                    
P 16  15585.699123   5670.961630 -20835.079954   -252.599077                    
V 16 -20753.344445  16138.013773 -10809.313350     -0.000407                    
P 17  -7026.816268 -17351.027951  19145.942859     40.916547                    
V 17  22357.923343   8154.429508  15538.907135     -0.038840                    
P 18 -12887.315867  20707.490663  10469.625946    243.672518                    
V 18 -12235.525930   5453.098181 -27204.579729      0.018171                    
P 19  24996.181132   7976.078646   5295.195463   -355.938307                    
V 19   5044.951539   5068.356222 -30567.379817     -0.032191                    
P 20  22017.428242 -12823.290632   7193.800487     87.928163                    
V 20  -4464.955471   9091.478364  29227.615114      0.017205                    
P 21  -4433.568792  23225.170272 -10989.923572   -285.753417                    
V 21  -6138.895890 -14224.143544 -26825.739829     -0.022184                    
P 22  -2365.077693  19457.292202  18049.617563    160.976921                    
V 22 -18949.453700  12715.727098 -16498.656134      0.009758                    
P 23  21991.180553  -2688.836601 -14869.404048    105.499842                    
V 23  16858.884977   8636.548930  22894.185681     -0.036749                    
P 24 -15133.435843   1908.153493  21738.841916     -2.580474                    
V 24  -4686.857427 -27219.582253   -836.531478     -0.006592                    
P 25 -19707.586465  17677.850547  -1365.286717     77.468969                    
V 25  -2925.649623   -867.656488  32002.242172      0.033002                    
P 26 -22528.603147 -13987.700061  -4137.851734    -68.667975                    
V 26   4755.552355    263.163476 -31379.991408      0.145125                    
P 28   7037.424276 -19408.877244  17186.022745    240.453699                    
V 28  17479.866129 -11225.526274 -20716.283793      0.034314                    
P 29 -14384.042399   9118.412831 -20313.592522    416.197261                    
V 29 -23408.067692 -11173.930003  11569.045804      0.038071                    
P 30   7238.207956  14100.224133 -21667.211228   -207.243485                    
V 30 -19110.060417  18619.945481   5807.730925      0.071682                    
P 31   7747.833924  24396.683302  -6328.212557    306.267743                    
V 31  -1153.066329   8562.322059  31012.887306      0.015966                    
P 32  22356.037908  -3540.778421  13610.915219   -542.708637                    
V 32 -12666.001925  12077.423589  24709.613262     -0.029997                    
EOF
